{"type": "FeatureCollection", "features": [ {"type": "Feature", "properties": {"norad_id": 31268, "name": "FENGYUN 1C DEB", "group": "fengyun-1c-debris", "lat": 39.149154966068465, "lon": -132.4879253460671, "alt_km": 833.1389975138882, "timestamp": "2025-12-24T11:33:00.298380+00:00", "meta": {"OBJECT_NAME": "FENGYUN 1C DEB", "OBJECT_ID": "1999-025BNA", "EPOCH": "2025-12-13T20:28:59.966112", "MEAN_MOTION": 14.06415523, "ECCENTRICITY": 0.00495712, "INCLINATION": 98.7556, "RA_OF_ASC_NODE": 30.024, "ARG_OF_PERICENTER": 180.2607, "MEAN_ANOMALY": 179.8544, "EPHEMERIS_TYPE": 0, "CLASSIFICATION_TYPE": "U", "NORAD_CAT_ID": 31268, "ELEMENT_SET_NO": 999, "REV_AT_EPOCH": 62048, "BSTAR": 0.00090714334, "MEAN_MOTION_DOT": 1.473e-05, "MEAN_MOTION_DDOT": 0}, "tle": {"line1": "1 31268U 99025BNA 25347.85347183  .00001473  00000+0  90714-3 0  9993", "line2": "2 31268  98.7556  30.0240 0049571 180.2607 179.8544 14.06415523620480"}}, "geometry": {"type": "Point", "coordinates": [-132.4879253460671, 39.149154966068465]}}, {"type": "Feature", "properties": {"norad_id": 31269, "name": "FENGYUN 1C DEB", "group": "fengyun-1c-debris", "lat": 28.438832092133964, "lon": -128.35245682851908, "alt_km": 889.5103843033348, "timestamp": "2025-12-24T11:33:00.298390+00:00", "meta": {"OBJECT_NAME": "FENGYUN 1C DEB", "OBJECT_ID": "1999-025BNB", "EPOCH": "2025-12-24T03:49:41.403936", "MEAN_MOTION": 14.43891402, "ECCENTRICITY": 0.0238949, "INCLINATION": 98.1793, "RA_OF_ASC_NODE": 235.8054, "ARG_OF_PERICENTER": 240.6276, "MEAN_ANOMALY": 275.3406, "EPHEMERIS_TYPE": 0, "CLASSIFICATION_TYPE": "U", "NORAD_CAT_ID": 31269, "ELEMENT_SET_NO": 999, "REV_AT_EPOCH": 96651, "BSTAR": 0.0018447, "MEAN_MOTION_DOT": 8.873e-05, "MEAN_MOTION_DDOT": 0}, "tle": {"line1": "1 31269U 99025BNB 25358.15950699  .00008873  00000+0  18447-2 0  9994", "line2": "2 31269  98.1793 235.8054 0238949 240.6276 275.3406 14.43891402966519"}}, "geometry": {"type": "Point", "coordinates": [-128.35245682851908, 28.438832092133964]}}, {"type": "Feature", "properties": {"norad_id": 31272, "name": "FENGYUN 1C DEB", "group": "fengyun-1c-debris", "lat": 22.844528301623306, "lon": -133.2042401536659, "alt_km": 771.5162680904632, "timestamp": "2025-12-24T11:33:00.298400+00:00", "meta": {"OBJECT_NAME": "FENGYUN 1C DEB", "OBJECT_ID": "1999-025BNE", "EPOCH": "2025-12-24T03:00:16.525728", "MEAN_MOTION": 14.22944535, "ECCENTRICITY": 0.0107041, "INCLINATION": 99.0915, "RA_OF_ASC_NODE": 230.2962, "ARG_OF_PERICENTER": 80.4524, "MEAN_ANOMALY": 280.8729, "EPHEMERIS_TYPE": 0, "CLASSIFICATION_TYPE": "U", "NORAD_CAT_ID": 31272, "ELEMENT_SET_NO": 999, "REV_AT_EPOCH": 97151, "BSTAR": 0.00045906, "MEAN_MOTION_DOT": 1.049e-05, "MEAN_MOTION_DDOT": 0}, "tle": {"line1": "1 31272U 99025BNE 25358.12519127  .00001049  00000+0  45906-3 0  9991", "line2": "2 31272  99.0915 230.2962 0107041  80.4524 280.8729 14.22944535971518"}}, "geometry": {"type": "Point", "coordinates": [-133.2042401536659, 22.844528301623306]}}, {"type": "Feature", "properties": {"norad_id": 31274, "name": "FENGYUN 1C DEB", "group": "fengyun-1c-debris", "lat": 75.596928883002, "lon": 139.27544485411724, "alt_km": 762.4458822754113, "timestamp": "2025-12-24T11:33:00.298410+00:00", "meta": {"OBJECT_NAME": "FENGYUN 1C DEB", "OBJECT_ID": "1999-025BNG", "EPOCH": "2025-12-20T18:48:10.459296", "MEAN_MOTION": 13.8564505, "ECCENTRICITY": 0.0237962, "INCLINATION": 99.0043, "RA_OF_ASC_NODE": 173.8465, "ARG_OF_PERICENTER": 88.2094, "MEAN_ANOMALY": 274.6299, "EPHEMERIS_TYPE": 0, "CLASSIFICATION_TYPE": "U", "NORAD_CAT_ID": 31274, "ELEMENT_SET_NO": 999, "REV_AT_EPOCH": 94318, "BSTAR": 0.00061688976, "MEAN_MOTION_DOT": 8.4e-06, "MEAN_MOTION_DDOT": 0}, "tle": {"line1": "1 31274U 99025BNG 25354.78345439  .00000840  00000+0  61689-3 0  9998", "line2": "2 31274  99.0043 173.8465 0237962  88.2094 274.6299 13.85645050943189"}}, "geometry": {"type": "Point", "coordinates": [139.27544485411724, 75.596928883002]}}, {"type": "Feature", "properties": {"norad_id": 31275, "name": "FENGYUN 1C DEB", "group": "fengyun-1c-debris", "lat": -73.24326172134577, "lon": -169.93463487269634, "alt_km": 859.6108027530609, "timestamp": "2025-12-24T11:33:00.298421+00:00", "meta": {"OBJECT_NAME": "FENGYUN 1C DEB", "OBJECT_ID": "1999-025BNH", "EPOCH": "2025-12-24T01:45:49.783104", "MEAN_MOTION": 14.02351369, "ECCENTRICITY": 0.0103496, "INCLINATION": 98.9438, "RA_OF_ASC_NODE": 41.2001, "ARG_OF_PERICENTER": 321.1011, "MEAN_ANOMALY": 38.2739, "EPHEMERIS_TYPE": 0, "CLASSIFICATION_TYPE": "U", "NORAD_CAT_ID": 31275, "ELEMENT_SET_NO": 999, "REV_AT_EPOCH": 95645, "BSTAR": 0.00084642, "MEAN_MOTION_DOT": 1.317e-05, "MEAN_MOTION_DDOT": 0}, "tle": {"line1": "1 31275U 99025BNH 25358.07349286  .00001317  00000+0  84642-3 0  9993", "line2": "2 31275  98.9438  41.2001 0103496 321.1011  38.2739 14.02351369956456"}}, "geometry": {"type": "Point", "coordinates": [-169.93463487269634, -73.24326172134577]}}, {"type": "Feature", "properties": {"norad_id": 31279, "name": "FENGYUN 1C DEB", "group": "fengyun-1c-debris", "lat": -13.393494150560558, "lon": 8.491150055983072, "alt_km": 857.456705322219, "timestamp": "2025-12-24T11:33:00.298431+00:00", "meta": {"OBJECT_NAME": "FENGYUN 1C DEB", "OBJECT_ID": "1999-025BNM", "EPOCH": "2025-12-23T18:46:41.395584", "MEAN_MOTION": 14.26331722, "ECCENTRICITY": 0.00741734, "INCLINATION": 98.5169, "RA_OF_ASC_NODE": 5.7667, "ARG_OF_PERICENTER": 145.5025, "MEAN_ANOMALY": 215.1002, "EPHEMERIS_TYPE": 0, "CLASSIFICATION_TYPE": "U", "NORAD_CAT_ID": 31279, "ELEMENT_SET_NO": 999, "REV_AT_EPOCH": 97386, "BSTAR": 0.00040531083, "MEAN_MOTION_DOT": 9.6e-06, "MEAN_MOTION_DDOT": 0}, "tle": {"line1": "1 31279U 99025BNM 25357.78242356  .00000960  00000+0  40531-3 0  9996", "line2": "2 31279  98.5169   5.7667 0074173 145.5025 215.1002 14.26331722973862"}}, "geometry": {"type": "Point", "coordinates": [8.491150055983072, -13.393494150560558]}}, {"type": "Feature", "properties": {"norad_id": 31281, "name": "FENGYUN 1C DEB", "group": "fengyun-1c-debris", "lat": -4.817300853166031, "lon": -45.85058490937805, "alt_km": 567.8735327423528, "timestamp": "2025-12-24T11:33:00.298442+00:00", "meta": {"OBJECT_NAME": "FENGYUN 1C DEB", "OBJECT_ID": "1999-025BNP", "EPOCH": "2025-12-24T02:50:14.168256", "MEAN_MOTION": 15.17974008, "ECCENTRICITY": 0.0112397, "INCLINATION": 98.3834, "RA_OF_ASC_NODE": 134.4596, "ARG_OF_PERICENTER": 53.0204, "MEAN_ANOMALY": 308.1252, "EPHEMERIS_TYPE": 0, "CLASSIFICATION_TYPE": "U", "NORAD_CAT_ID": 31281, "ELEMENT_SET_NO": 999, "REV_AT_EPOCH": 99904, "BSTAR": 0.0011279, "MEAN_MOTION_DOT": 0.00027035, "MEAN_MOTION_DDOT": 0}, "tle": {"line1": "1 31281U 99025BNP 25358.11821954  .00027035  00000+0  11279-2 0  9992", "line2": "2 31281  98.3834 134.4596 0112397  53.0204 308.1252 15.17974008999045"}}, "geometry": {"type": "Point", "coordinates": [-45.85058490937805, -4.817300853166031]}}, {"type": "Feature", "properties": {"norad_id": 31282, "name": "FENGYUN 1C DEB", "group": "fengyun-1c-debris", "lat": -51.01420010933399, "lon": -71.70742020915942, "alt_km": 703.1810826840219, "timestamp": "2025-12-24T11:33:00.298452+00:00", "meta": {"OBJECT_NAME": "FENGYUN 1C DEB", "OBJECT_ID": "1999-025BNQ", "EPOCH": "2025-12-23T12:29:57.299712", "MEAN_MOTION": 14.43486949, "ECCENTRICITY": 0.0126833, "INCLINATION": 99.2174, "RA_OF_ASC_NODE": 275.6799, "ARG_OF_PERICENTER": 254.4727, "MEAN_ANOMALY": 104.2427, "EPHEMERIS_TYPE": 0, "CLASSIFICATION_TYPE": "U", "NORAD_CAT_ID": 31282, "ELEMENT_SET_NO": 999, "REV_AT_EPOCH": 97276, "BSTAR": 0.00019477488, "MEAN_MOTION_DOT": 6.68e-06, "MEAN_MOTION_DDOT": 0}, "tle": {"line1": "1 31282U 99025BNQ 25357.52080208  .00000668  00000+0  19477-3 0  9998", "line2": "2 31282  99.2174 275.6799 0126833 254.4727 104.2427 14.43486949972762"}}, "geometry": {"type": "Point", "coordinates": [-71.70742020915942, -51.01420010933399]}}, {"type": "Feature", "properties": {"norad_id": 31284, "name": "FENGYUN 1C DEB", "group": "fengyun-1c-debris", "lat": 69.61989585578208, "lon": -58.95713248805344, "alt_km": 876.2614649386696, "timestamp": "2025-12-24T11:33:00.298462+00:00", "meta": {"OBJECT_NAME": "FENGYUN 1C DEB", "OBJECT_ID": "1999-025BNS", "EPOCH": "2025-12-23T12:42:57.818304", "MEAN_MOTION": 13.97914234, "ECCENTRICITY": 0.01423046, "INCLINATION": 99.7207, "RA_OF_ASC_NODE": 92.5583, "ARG_OF_PERICENTER": 29.6928, "MEAN_ANOMALY": 331.2216, "EPHEMERIS_TYPE": 0, "CLASSIFICATION_TYPE": "U", "NORAD_CAT_ID": 31284, "ELEMENT_SET_NO": 999, "REV_AT_EPOCH": 95313, "BSTAR": 0.000450329, "MEAN_MOTION_DOT": 6.47e-06, "MEAN_MOTION_DDOT": 0}, "tle": {"line1": "1 31284U 99025BNS 25357.52983586  .00000647  00000+0  45033-3 0  9995", "line2": "2 31284  99.7207  92.5583 0142304  29.6928 331.2216 13.97914234953138"}}, "geometry": {"type": "Point", "coordinates": [-58.95713248805344, 69.61989585578208]}}, {"type": "Feature", "properties": {"norad_id": 31285, "name": "FENGYUN 1C DEB", "group": "fengyun-1c-debris", "lat": -20.363662937060376, "lon": 155.39023568380722, "alt_km": 712.2930156365819, "timestamp": "2025-12-24T11:33:00.298495+00:00", "meta": {"OBJECT_NAME": "FENGYUN 1C DEB", "OBJECT_ID": "1999-025BNT", "EPOCH": "2025-12-23T16:55:08.666688", "MEAN_MOTION": 14.26049071, "ECCENTRICITY": 0.02003008, "INCLINATION": 98.5206, "RA_OF_ASC_NODE": 337.8246, "ARG_OF_PERICENTER": 154.7424, "MEAN_ANOMALY": 21.0164, "EPHEMERIS_TYPE": 0, "CLASSIFICATION_TYPE": "U", "NORAD_CAT_ID": 31285, "ELEMENT_SET_NO": 999, "REV_AT_EPOCH": 97455, "BSTAR": 0.00013578366, "MEAN_MOTION_DOT": 3.55e-06, "MEAN_MOTION_DDOT": 0}, "tle": {"line1": "1 31285U 99025BNT 25357.70496142  .00000355  00000+0  13578-3 0  9998", "line2": "2 31285  98.5206 337.8246 0200300 154.7424  21.0164 14.26049071974554"}}, "geometry": {"type": "Point", "coordinates": [155.39023568380722, -20.363662937060376]}}]}